{"udaipur": [{"placeName": " 1. Lake Pichola", "placeDesc": "The oldest and one of the largest lakes of Udaipur, Lake Pichola is enveloped by lofty Palaces, temples, bathing ghats and elevated hills on all its sides."}, {"placeName": " 2. City Palace", "placeDesc": "One of the best architectural marvels in the state of Rajasthan, the City Palace in Udaipur is located on the banks of Lake Pichola. The grand white City Palace is a heritage building, almost like a fairy-tale, and it showcases the best elements of Rajput Culture and arts."}, {"placeName": " 3. Sajjangarh Palace", "placeDesc": "Also known as Monsoon Palace, Sajjangarh Palace is located at a peak Bansdara Mountain as high as about 944 m above the sea level overlooking the famous Pichola Lake."}, {"placeName": " 4. Fateh Sagar Lake", "placeDesc": "Fateh Sagar Lake, placed in the city of Udaipur in Rajasthan, is an artificial lake named after Maharana Fateh Singh of Udaipur and Mewar and built to the north-west of Udaipur, located to the north of Lake Pichola in the 1680s, is one of the four lakes of the Udaipur city, namely the Lake Pichola (..."}, {"placeName": " 5. Vintage Car Museum", "placeDesc": "Located just a few kilometers away from the magnificent City Palace Vintage Car Museum is an awesome place for automobile and car lovers."}, {"placeName": " 6. Eklingji Temple", "placeDesc": "Almost 22km away from Udaipur, Eklingji Temple is dedicated to Lord Shiva. Taking a cab to this temple is the most convenient way to reach it. It is one of the most famous temples of Rajasthan, also known for its remarkable architecture."}, {"placeName": " 7. Jagdish Temple", "placeDesc": "Dedicated to the preserver of the universe, Lord Vishnu, the Jagdish Temple stands in the City Palace Complex in the city of Udaipur. Beautiful carvings, numerous appealing statues and an atmosphere of serenity make this place of worship an ideal choice for seekers of solace and faith."}, {"placeName": " 8. Doodh Talai Musical Garden", "placeDesc": "Doodh Talai Musical garden is a rock and fountain garden which is a great place to enjoy the sunset and one can see the wide expanse of the city. Also, there is an Areal tramway (cable car) connecting a garden of Doodh Talai and the Karni mata Temple."}, {"placeName": " 9. Jaisamand Lake", "placeDesc": "Jaisamand Lake is the second largest artificial lake in Asia. There are seven islands in the lake, one of which is still inhabited by a local tribe, also it has a temple dedicated to Lord Shiva on the dam."}, {"placeName": " 10. Gulabh Bagh and Zoo", "placeDesc": "For a fulfilled and enriched trip you must visit Gulab Bagh and Zoo which is not merely a garden but a paradise for those who wish to experience more in less time."}, {"placeName": " 11. Saheliyon Ki Bari", "placeDesc": "A majestic garden located in one of the shores of Fateh Sagar Lake, Saheliyon-ki-Bari has expensive lawns, shady cool walking lanes and imposing fountains. It is one of the best places in Udaipur to relax."}, {"placeName": " 12. Jag Mandir palace", "placeDesc": "An exquisite palace placed in an estuary Island in Pichola Lake, Jag Mandir Palace offer a blissful view of sunset and the spacious courtyard with black and white marble tiles Is a striking feature of this architectural marvel."}, {"placeName": " 13. Bada Mahal", "placeDesc": "Dating back to 17th century, Bada Mahal is an incredible structural marvel. Constructed in Rajput-Mughal architectural style, the Mahal is considered as the Men''s section of the City Palace."}, {"placeName": " 14. Maharana Pratap Smarak", "placeDesc": "Overlooks the charming Fateh Sagar Lake, Maharana Pratap Memorial comprises of a marvelous bronze statue Maharana Pratap sitting on his faithful horse Chetak. Many people come here to pay their homage to the Rajput Hero, Maharana Pratap and his loyal horse."}, {"placeName": " 15. Shilp Gram", "placeDesc": "Located at the foot hills of Aravali Mountains in Udaipur, Shilpgram is a craftsmen's village which encloses twenty-six huts constructed in traditional architectural styles and these huts display many house hold decorative articles."}, {"placeName": " 16. Nehru Garden", "placeDesc": "Constructed in an Island at the heart of Fateh Sagar Lake, Nehru Garden encloses many distinct water fountains resembling those in Brindavan Gardens of Mysore. Another major attraction of the garden is a floating restaurant, in a boat shape."}, {"placeName": " 17. Haldighaati", "placeDesc": "This is a historic site located 40km from the Udaipur city and is famous for the battle between the Mughals and the Rajputs led by Maharana Pratap. There is a cenotaph with thin, delicate marble columns dedicated to Rana Pratap's horse."}, {"placeName": " 18. Sukhadia Circle", "placeDesc": "Sukhadia Circle, also called The Heart Of Panchvati, is located In the north of the Udaipur city. This splendid turn around Panchwati is a small pond amidst which lies a 21 Ft high three-tiered fountain."}, {"placeName": " 19. Bharatiya Lok Kala Museum", "placeDesc": "If you are interested in artifacts and curious to know how of making these items then Bharatiya Lok kala Museum is definitely the place for you. Located to the north of Chetak circle in Udaipur, the museum has a fine collection of paintings, folk musical instruments, folk dresses and ornaments, doll..."}, {"placeName": " 20. Mansapurna Karni Ropeway", "placeDesc": "Mansapurna Karni Ropeway is a splendid way to commute from Udaipur and Machhala Hill Top. The 387 metre ropeway is the best mode of transport to reach the Karni Mata Temple located on the hill. It was built in 2008 by Kailash Khandelwal and offers a breathtaking aerial view of the Aravali mountain r..."}, {"placeName": " 21. Ambrai Ghat", "placeDesc": "Located on the banks of a serene Pichola lake, Ambrai Ghat is famous for the splendid view of the natural landscape surrounding it. The beautiful ghat has marble railings and seats that add a unique charm to the attraction. One can also get a fabulous view of the Lake Palace, Shiva Niwas and Jag Man..."}, {"placeName": " 22. Hathi Pol Bazar", "placeDesc": "Hathi Pol Bazar is a perfect attraction for shopaholics. One can find a variety of branded and local items including intricately embroidered and colourful block-printed apparel, ethnic silver jewellery, accessories, traditional home d_cor items, textiles, etc. Hathi Pol Bazar is famous for Miniature..."}, {"placeName": " 23. Bada Bazar", "placeDesc": "Bada Bazar is famous for traditional art and craft work. One can find stunning leather work, beautiful traditional jewellery, colourful tie and dye fabrics or clothing. It is a perfect place for tourists to indulge in shopping in Udaipur or buy souvenirs and gifts at rates that don't pinch the pocke..."}, {"placeName": " 24. Chetak Circle", "placeDesc": "Named after the royal horse of Maharana Pratap, Chetak Circle is a bustling attraction in the city. It is a roundabout with a life-size statue of the horse installed in the centre. The roundabout is lined by shrubs on the inside and has a fountain. Chetak circle is a lively sight for passersby espec..."}, {"placeName": " 25. Crystal gallery", "placeDesc": "Crystal gallery has a stunning collection of crystal artefacts and is the largest collection of crystal in the world. The gallery is located inside the Fateh Prakash Palace and was established by Maharana Sajjan Singh in 1877. He had ordered the crystal artefacts from Birmingham in 1877. However, by..."}, {"placeName": " 26. Neemach Mata Temple", "placeDesc": "Surrounded by lush greenery, Neemach Mata Temple is located on a hill in Dewali, on the banks of the Fateh Sagar Lake. It is dedicated to Goddess Neemach Mata. It takes climbing a distance of 900 metres from the base through the enchanting natural surroundings. The temple is also famous for the fabu..."}, {"placeName": " 27. Bagore Ki Haveli ", "placeDesc": "Situated in the Gangaur Ghat Marg of Udaipur in the state of Rajasthan, Bagore Ki Haveli was built in the eighteenth century on the waterfront of Lake Pichola. Boasting of over a hundred rooms, the palace boasts of mirror work, paintings and interior palace art. The Haveli also hosts cultural evenin..."}, {"placeName": " 28. Taj Lake Palace", "placeDesc": "Built in 1746 by Maharana Jagat Singh II, Taj Lake Palace is possibly one of the most romantic structures of Udaipur. The palace was used as a recreation spot and pleasurable residence of the king. Boasting of 66 rooms, the grand palace has been converted into a heritage hotel and hosts tourists fro..."}, {"placeName": " 29. Marvel Water Park", "placeDesc": "Marvel Water Park is the oldest and largest of its kind in the city. The water park is the most popular weekend hangout place among families, friends and couples. It has a number of water and regular rides, a food court to tend to your hunger pangs, changing rooms, lockers etc."}, {"placeName": " 30. Jeel Water Park", "placeDesc": "Situated in Chitrakoot Nagar, Bhuwana, Jeel Water Park is a newly constructed water park in the city of Udaipur. Facilitated with umpteen big and small water rides, roller coasters, water music DJ etc, the park has become the common favourite of the people."}, {"placeName": " 31. Food in Udaipur", "placeDesc": "When in the lake city, visiting the cafes along the lakes and trying the delicious food is one of the topmost things to do in Udaipur. Although the signature dish is the very famous laal maas made out of mutton in traditional Rajasthan flavours, you can also taste some of the very sumptuous dabeli, ..."}]}